ORBCOMM FM115           
1 41186U 15081H   24307.52132170  .00004617  00000+0  95469-3 0  9995
2 41186  46.9992  36.9054 0000523 268.7302  91.3525 14.61561137474607
ORBCOMM FM108           
1 41187U 15081J   24307.72848766  .00005280  00000+0  11900-2 0  9997
2 41187  47.0029  95.8609 0002412 313.7619  46.3067 14.57358757473834
ORBCOMM FM117           
1 41188U 15081K   24307.69478515  .00003464  00000+0  79430-3 0  9990
2 41188  46.9986  94.8575 0002568 332.2046  27.8701 14.57327576473843
ORBCOMM FM116           
1 41189U 15081L   24307.06722683  .00004108  00000+0  93428-3 0  9999
2 41189  47.0001 187.6568 0001706  86.8377 273.2703 14.57355257472518
